{
  "norad_id": 61919,
  "name": "STARLINK-32547",
  "history": [
    {
      "epoch": "2026-03-28T07:18:23.946048Z",
      "apogee_km": 484.0403745172571,
      "perigee_km": 482.02319089514185,
      "latitude_deg": -6.032805547935272e-05,
      "longitude_deg": -119.11304874474598,
      "height_km": 483.1446338126594,
      "semi_major_axis_km": 6861.1687827062,
      "eccentricity": 0.000147,
      "inclination_deg": 43.0034,
      "raan_deg": 176.2136,
      "arg_perigee_deg": 250.5513,
      "mean_anomaly_deg": 109.5179,
      "mean_motion_rev_day": 15.27585782
    }
  ]
}